STARLINK-30069          
1 56834U 23079M   26067.48212902 -.00002416  00000+0 -80472-4 0  9995
2 56834  42.9986 110.4464 0000469 272.6695  87.4103 15.26726881152740
STARLINK-32568          
1 62128U 24222Q   26068.53626012  .00039010  00000+0  14201-2 0  9990
2 62128  42.9983 137.2058 0001206 271.2588  88.8126 15.27570226 72463
