[{"OBJECT_NAME":"STARLINK-30069","OBJECT_ID":"2023-079M","EPOCH":"2026-03-08T11:34:15.947328","MEAN_MOTION":15.26726881,"ECCENTRICITY":4.69e-5,"INCLINATION":42.9986,"RA_OF_ASC_NODE":110.4464,"ARG_OF_PERICENTER":272.6695,"MEAN_ANOMALY":87.4103,"EPHEMERIS_TYPE":0,"CLASSIFICATION_TYPE":"U","NORAD_CAT_ID":56834,"ELEMENT_SET_NO":999,"REV_AT_EPOCH":15274,"BSTAR":-8.0472e-5,"MEAN_MOTION_DOT":-2.416e-5,"MEAN_MOTION_DDOT":0},{"OBJECT_NAME":"STARLINK-32568","OBJECT_ID":"2024-222Q","EPOCH":"2026-03-09T12:52:12.874368","MEAN_MOTION":15.27570226,"ECCENTRICITY":0.00012064,"INCLINATION":42.9983,"RA_OF_ASC_NODE":137.2058,"ARG_OF_PERICENTER":271.2588,"MEAN_ANOMALY":88.8126,"EPHEMERIS_TYPE":0,"CLASSIFICATION_TYPE":"U","NORAD_CAT_ID":62128,"ELEMENT_SET_NO":999,"REV_AT_EPOCH":7246,"BSTAR":0.0014200614,"MEAN_MOTION_DOT":0.0003901,"MEAN_MOTION_DDOT":0}]
